OBJECT_NAME,OBJECT_ID,EPOCH,MEAN_MOTION,ECCENTRICITY,INCLINATION,RA_OF_ASC_NODE,ARG_OF_PERICENTER,MEAN_ANOMALY,EPHEMERIS_TYPE,CLASSIFICATION_TYPE,NORAD_CAT_ID,ELEMENT_SET_NO,REV_AT_EPOCH,BSTAR,MEAN_MOTION_DOT,MEAN_MOTION_DDOT
ONEWEB-0697,2024-188K,2026-07-07T21:37:37.282944,13.11416095,.0002497,87.8879,16.9418,103.2318,256.9089,0,U,61603,999,8716,.16035E-2,.581E-5,0
ONEWEB-0698,2024-188L,2026-07-07T22:55:44.425056,13.11418509,.0002116,87.8880,16.9447,122.1452,237.9882,0,U,61604,999,8719,.15955E-3,.69E-6,0
ONEWEB-0699,2024-188M,2026-07-07T23:37:38.696160,13.10369678,.0002253,87.8823,32.1219,101.0275,259.1106,0,U,61605,999,8603,-.16638E-2,-.568E-5,0
ONEWEB-0700,2024-188N,2026-07-07T23:40:04.871136,13.10373905,.000241,87.8839,32.0338,94.4351,265.7052,0,U,61606,999,8602,-.13996E-2,-.476E-5,0
ONEWEB-0701,2024-188P,2026-07-08T00:04:33.377376,13.10375448,.0002419,87.8824,32.1182,104.0059,256.1338,0,U,61607,999,8603,.10976E-2,.396E-5,0
ONEWEB-0702,2024-188Q,2026-07-07T22:11:47.200704,13.11414696,.0002811,87.8898,16.8603,100.9406,259.2038,0,U,61608,999,8720,-.92351E-3,-.315E-5,0
ONEWEB-0704,2024-188R,2026-07-07T23:47:24.934848,13.10374322,.0002811,87.8827,32.1104,95.6717,264.4731,0,U,61609,999,8601,-.82085E-3,-.274E-5,0
ONEWEB-0705,2024-188S,2026-07-07T23:54:46.319616,13.10376157,.0002816,87.8829,32.1152,79.3911,280.7533,0,U,61610,999,7818,.65291E-4,.35E-6,0
ONEWEB-0706,2024-188T,2026-07-07T23:32:45.555648,13.10373414,.0002376,87.8819,32.1226,90.0662,270.0737,0,U,61611,999,8610,-.17302E-2,-.591E-5,0
ONEWEB-0707,2024-188U,2026-07-07T23:42:31.519584,13.10373923,.0002427,87.8829,32.1159,89.7503,270.3902,0,U,61612,999,8604,-.11035E-2,-.373E-5,0
ONEWEB-0708,2024-188V,2026-07-08T00:09:25.898400,13.10379737,.0002179,87.8819,32.1288,73.2094,286.9272,0,U,61613,999,8602,.15033E-2,.538E-5,0
