ONEWEB-0697             
1 61603U 24188K   26188.90112596  .00000581  00000+0  16035-2 0  9997
2 61603  87.8879  16.9418 0002497 103.2318 256.9089 13.11416095 87166
ONEWEB-0698             
1 61604U 24188L   26188.95537529  .00000069  00000+0  15955-3 0  9992
2 61604  87.8880  16.9447 0002116 122.1452 237.9882 13.11418509 87193
ONEWEB-0699             
1 61605U 24188M   26188.98447565 -.00000568  00000+0 -16638-2 0  9990
2 61605  87.8823  32.1219 0002253 101.0275 259.1106 13.10369678 86037
ONEWEB-0700             
1 61606U 24188N   26188.98616749 -.00000476  00000+0 -13996-2 0  9995
2 61606  87.8839  32.0338 0002410  94.4351 265.7052 13.10373905 86021
ONEWEB-0701             
1 61607U 24188P   26189.00316409  .00000396  00000+0  10976-2 0  9994
2 61607  87.8824  32.1182 0002419 104.0059 256.1338 13.10375448 86032
ONEWEB-0702             
1 61608U 24188Q   26188.92485186 -.00000315  00000+0 -92351-3 0  9995
2 61608  87.8898  16.8603 0002811 100.9406 259.2038 13.11414696 87209
ONEWEB-0704             
1 61609U 24188R   26188.99126082 -.00000274  00000+0 -82085-3 0  9997
2 61609  87.8827  32.1104 0002811  95.6717 264.4731 13.10374322 86010
ONEWEB-0705             
1 61610U 24188S   26188.99636944  .00000035  00000+0  65291-4 0  9996
2 61610  87.8829  32.1152 0002816  79.3911 280.7533 13.10376157 78185
ONEWEB-0706             
1 61611U 24188T   26188.98108282 -.00000591  00000+0 -17302-2 0  9992
2 61611  87.8819  32.1226 0002376  90.0662 270.0737 13.10373414 86103
ONEWEB-0707             
1 61612U 24188U   26188.98786481 -.00000373  00000+0 -11035-2 0  9991
2 61612  87.8829  32.1159 0002427  89.7503 270.3902 13.10373923 86041
ONEWEB-0708             
1 61613U 24188V   26189.00654975  .00000538  00000+0  15033-2 0  9991
2 61613  87.8819  32.1288 0002179  73.2094 286.9272 13.10379737 86021
